ICEYE-X39               
1 60546U 24149CG  26167.20969604  .00002872  00000+0  23635-3 0  9999
2 60546  97.6764 244.2464 0005156 121.2528 238.9202 14.99891593 99974
UMBRA-10                
1 60547U 24149CH  26167.21008580  .00012840  00000+0  63402-3 0  9990
2 60547  97.6984 254.4261 0000568  70.6660 289.4635 15.18018124100587
ICEYE-X33               
1 60548U 24149CJ  26166.50240684  .00004173  00000+0  33257-3 0  9990
2 60548  97.7215 245.6519 0001591  99.4442 260.6961 15.00887084 99959
ICEYE-X40               
1 60549U 24149CK  26167.16698686  .00002303  00000+0  20027-3 0  9997
2 60549  97.6818 243.6789 0006636  85.0065 275.1915 14.97938368 99926
SATELIOT_1              
1 60550U 24149CL  26166.95787273  .00002507  00000+0  21679-3 0  9996
2 60550  97.6750 242.8755 0008423  84.5612 275.6571 14.98063420 99882
BRO-14                  
1 60551U 24149CM  26167.19213880  .00000590  00000+0  57452-4 0  9991
2 60551  97.6875 242.9878 0008054  99.2759 260.9373 14.96174814 99844
SATELIOT_3              
1 60552U 24149CN  26167.20080078  .00001615  00000+0  14147-3 0  9997
2 60552  97.6816 243.9061 0005867  88.7192 271.4702 14.98049769 99933
BRO-15                  
1 60553U 24149CP  26167.17458093  .00002256  00000+0  20525-3 0  9999
2 60553  97.6811 242.5729 0009712  91.3804 268.8530 14.96163966 99852
UM5-RIBAT               
1 60554U 24149CQ  26166.93895667  .00002591  00000+0  20723-3 0  9997
2 60554  97.6640 244.7562 0003565  63.8669 296.2921 15.01069982100004
UM5-EOSAT               
1 60555U 24149CR  26167.17228678  .00003868  00000+0  30328-3 0  9997
2 60555  97.6709 245.9198 0008774 117.5819 242.6298 15.01523738100062
LASARSAT                
1 62391U 24247Q   26167.00723506  .00026291  00000+0  52618-3 0  9999
2 62391  44.9746 268.8456 0008258 324.3458  35.6879 15.46313452 83135
CROCUBE                 
1 62394U 24247T   26165.58698051  .00034757  00000+0  65094-3 0  9997
2 62394  44.9722 274.1999 0008187 320.7516  39.2780 15.48102542 82947
TEVEL2-4                
1 63213U 25052D   26166.68245348  .00015491  00000+0  46436-3 0  9995
2 63213  97.3913  63.0717 0004849 106.3363 253.8414 15.34567843 69884
TEVEL2-5                
1 63214U 25052E   26166.96364296  .00014759  00000+0  44491-3 0  9996
2 63214  97.3907  63.3018 0004761 106.7826 253.3939 15.34401934 69926
TEVEL2-6                
1 63215U 25052F   26167.17159244  .00015102  00000+0  45558-3 0  9994
2 63215  97.3912  63.4942 0004675 107.3196 252.8558 15.34373601 69954
TEVEL2-1                
1 63217U 25052H   26166.67835869  .00014861  00000+0  45615-3 0  9999
2 63217  97.3883  62.6268 0004711 116.5645 243.6081 15.33827137 69863
TEVEL2-3                
1 63218U 25052J   26167.19494450  .00014646  00000+0  44863-3 0  9990
2 63218  97.3885  63.1651 0004682 115.6009 244.5717 15.33896026 69947
TEVEL2-2                
1 63219U 25052K   26166.67868108  .00015064  00000+0  46221-3 0  9993
2 63219  97.3885  62.6296 0004687 116.9580 243.2142 15.33835792 69862
TEVEL2-9                
1 63237U 25052AD  26167.17673258  .00013111  00000+0  42794-3 0  9991
2 63237  97.3944  62.5048 0007708 133.6169 226.5714 15.31871901 69878
TEVEL2-7                
1 63238U 25052AE  26167.08677737  .00013005  00000+0  42844-3 0  9996
2 63238  97.3948  62.3318 0007779 134.1699 226.0183 15.31574840 69858
TEVEL2-8                
1 63239U 25052AF  26166.96434749  .00012397  00000+0  40879-3 0  9996
2 63239  97.3947  62.1866 0007791 135.1271 225.0601 15.31555084 69836
FORESAIL-1 PRIME        
1 66778U 25276DS  26167.00824586  .00004523  00000+0  22130-3 0  9995
2 66778  97.4205 240.3003 0003893 107.9199 252.2460 15.18693531 30224
