OBJECT_NAME,OBJECT_ID,EPOCH,MEAN_MOTION,ECCENTRICITY,INCLINATION,RA_OF_ASC_NODE,ARG_OF_PERICENTER,MEAN_ANOMALY,EPHEMERIS_TYPE,CLASSIFICATION_TYPE,NORAD_CAT_ID,ELEMENT_SET_NO,REV_AT_EPOCH,BSTAR,MEAN_MOTION_DOT,MEAN_MOTION_DDOT
ICEYE-X39,2024-149CG,2026-06-16T05:01:57.737856,14.99891593,.0005156,97.6764,244.2464,121.2528,238.9202,0,U,60546,999,9997,.23635E-3,.2872E-4,0
UMBRA-10,2024-149CH,2026-06-16T05:02:31.413120,15.18018124,.0000568,97.6984,254.4261,70.6660,289.4635,0,U,60547,999,10058,.63402E-3,.1284E-3,0
ICEYE-X33,2024-149CJ,2026-06-15T12:03:27.950976,15.00887084,.00015911,97.7215,245.6519,99.4442,260.6961,0,U,60548,999,9995,.33256737E-3,.4173E-4,0
ICEYE-X40,2024-149CK,2026-06-16T04:00:27.664704,14.97938368,.0006636,97.6818,243.6789,85.0065,275.1915,0,U,60549,999,9992,.20027E-3,.2303E-4,0
SATELIOT_1,2024-149CL,2026-06-15T22:59:20.203872,14.98063420,.0008423,97.6750,242.8755,84.5612,275.6571,0,U,60550,999,9988,.21679E-3,.2507E-4,0
BRO-14,2024-149CM,2026-06-16T04:36:40.792320,14.96174814,.0008054,97.6875,242.9878,99.2759,260.9373,0,U,60551,999,9984,.57452E-4,.59E-5,0
SATELIOT_3,2024-149CN,2026-06-16T04:49:09.187392,14.98049769,.0005867,97.6816,243.9061,88.7192,271.4702,0,U,60552,999,9993,.14147E-3,.1615E-4,0
BRO-15,2024-149CP,2026-06-16T04:11:23.792352,14.96163966,.0009712,97.6811,242.5729,91.3804,268.8530,0,U,60553,999,9985,.20525E-3,.2256E-4,0
UM5-RIBAT,2024-149CQ,2026-06-15T22:32:05.856288,15.01069982,.0003565,97.6640,244.7562,63.8669,296.2921,0,U,60554,999,10000,.20723E-3,.2591E-4,0
UM5-EOSAT,2024-149CR,2026-06-16T04:08:05.577792,15.01523738,.0008774,97.6709,245.9198,117.5819,242.6298,0,U,60555,999,10006,.30328E-3,.3868E-4,0
LASARSAT,2024-247Q,2026-06-16T00:10:25.109184,15.46313452,.0008258,44.9746,268.8456,324.3458,35.6879,0,U,62391,999,8313,.52618E-3,.26291E-3,0
CROCUBE,2024-247T,2026-06-14T14:05:15.116064,15.48102542,.0008187,44.9722,274.1999,320.7516,39.2780,0,U,62394,999,8294,.65094E-3,.34757E-3,0
TEVEL2-4,2025-052D,2026-06-15T16:22:43.980672,15.34567843,.00048498,97.3913,63.0717,106.3363,253.8414,0,U,63213,999,6988,.46435922E-3,.15491E-3,0
TEVEL2-5,2025-052E,2026-06-15T23:07:38.751744,15.34401934,.0004761,97.3907,63.3018,106.7826,253.3939,0,U,63214,999,6992,.44491E-3,.14759E-3,0
TEVEL2-6,2025-052F,2026-06-16T04:07:05.586816,15.34373601,.0004675,97.3912,63.4942,107.3196,252.8558,0,U,63215,999,6995,.45558E-3,.15102E-3,0
TEVEL2-1,2025-052H,2026-06-15T16:16:50.190816,15.33827137,.00047118,97.3883,62.6268,116.5645,243.6081,0,U,63217,999,6986,.45614808E-3,.14861E-3,0
TEVEL2-3,2025-052J,2026-06-16T04:40:43.204800,15.33896026,.0004682,97.3885,63.1651,115.6009,244.5717,0,U,63218,999,6994,.44863E-3,.14646E-3,0
TEVEL2-2,2025-052K,2026-06-15T16:17:18.045312,15.33835792,.00046877,97.3885,62.6296,116.9580,243.2142,0,U,63219,999,6986,.4622071E-3,.15064E-3,0
TEVEL2-9,2025-052AD,2026-06-16T04:14:29.694912,15.31871901,.0007708,97.3944,62.5048,133.6169,226.5714,0,U,63237,999,6987,.42794E-3,.13111E-3,0
TEVEL2-7,2025-052AE,2026-06-16T02:04:57.564768,15.31574840,.0007779,97.3948,62.3318,134.1699,226.0183,0,U,63238,999,6985,.42844E-3,.13005E-3,0
TEVEL2-8,2025-052AF,2026-06-15T23:08:39.623136,15.31555084,.0007791,97.3947,62.1866,135.1271,225.0601,0,U,63239,999,6983,.40879E-3,.12397E-3,0
FORESAIL-1 PRIME,2025-276DS,2026-06-16T00:11:52.442304,15.18693531,.0003893,97.4205,240.3003,107.9199,252.2460,0,U,66778,999,3022,.2213E-3,.4523E-4,0
